NORAD_CAT_ID,OBJECT_NAME,OBJECT_TYPE,EPOCH,MEAN_MOTION,ECCENTRICITY,INCLINATION,RA_OF_ASC_NODE,ARG_OF_PERICENTER,MEAN_ANOMALY,BSTAR,MEAN_MOTION_DOT,MEAN_MOTION_DDOT,TLE_LINE0,TLE_LINE1,TLE_LINE2,SEMIMAJOR_AXIS,PERIOD,APOGEE,PERIGEE,DECAYED
53971.0,STARLINK-4639,PAYLOAD,2022-11-17 20:00:01,15.08820569,0.0001651,53.2144,246.3545,43.2363,94.1533,0.00067583,0.00010479,0.0,0 STARLINK-4639,1 53971U 22125H   22321.83334491  .00010479  00000-0  67583-3 0  9995,2 53971  53.2144 246.3545 0001651  43.2363  94.1533 15.08820569  7049,6917.94,95.439,540.947,538.663,0.0
53971.0,STARLINK-4639,PAYLOAD,2022-11-17 22:00:00,15.08827967,0.0001698,53.2143,245.981,40.8987,189.379,-0.00084313,-0.00013677,0.0,0 STARLINK-4639,1 53971U 22125H   22321.91667824 -.00013677  00000-0 -84313-3 0  9998,2 53971  53.2143 245.9810 0001698  40.8987 189.3790 15.08827967  1308,6917.917,95.438,540.957,538.6080000000002,0.0
53971.0,STARLINK-4639,PAYLOAD,2022-11-18 14:00:01,15.08799933,0.0001768,53.2145,242.9875,43.0511,210.39,0.0016000999999999,0.00025241,0.0,0 STARLINK-4639,1 53971U 22125H   22322.58334491  .00025241  00000-0  16001-2 0  9999,2 53971  53.2145 242.9875 0001768  43.0511 210.3900 15.08799933  7152,6918.003000000002,95.44,541.091,538.645,0.0
53971.0,STARLINK-4639,PAYLOAD,2022-11-18 22:00:00,15.08831651,0.0001846,53.2147,241.4917,45.1212,219.8711,-0.00088,-0.00014263,0.0,0 STARLINK-4639,1 53971U 22125H   22322.91667824 -.00014263  00000-0 -88000-3 0  9998,2 53971  53.2147 241.4917 0001846  45.1212 219.8711 15.08831651  1302,6917.906,95.438,541.048,538.494,0.0
53971.0,STARLINK-4639,PAYLOAD,2022-11-19 14:00:01,15.08833946,0.000183,53.2147,238.4982,47.0577,241.1096,0.00083896,0.00013087,0.0,0 STARLINK-4639,1 53971U 22125H   22323.58334491  .00013087  00000-0  83896-3 0  9992,2 53971  53.2147 238.4982 0001830  47.0577 241.1096 15.08833946  1301,6917.899,95.438,541.03,538.498,0.0
53971.0,STARLINK-4639,PAYLOAD,2022-11-19 20:00:01,15.08850462,0.000189,53.215,237.3762,50.8775,155.9818,-0.0012684,-0.00020424,0.0,0 STARLINK-4639,1 53971U 22125H   22323.83334491 -.00020424  00000-0 -12684-2 0  9991,2 53971  53.2150 237.3762 0001890  50.8775 155.9818 15.08850462  7343,6917.848000000001,95.437,541.021,538.406,0.0
53971.0,STARLINK-4639,PAYLOAD,2022-11-19 22:00:00,15.08842065,0.0001958,53.2148,237.0025,48.8159,250.9438,-0.0011986,-0.00019315,0.0,0 STARLINK-4639,1 53971U 22125H   22323.91667824 -.00019315  00000-0 -11986-2 0  9990,2 53971  53.2148 237.0025 0001958  48.8159 250.9438 15.08842065  1301,6917.874,95.437,541.094,538.385,0.0
53971.0,STARLINK-4639,PAYLOAD,2022-11-20 14:00:01,15.08812533,0.0001852,53.2145,234.0089,49.7158,273.2337,0.0012219,0.00019197,0.0,0 STARLINK-4639,1 53971U 22125H   22324.58334491  .00019197  00000-0  12219-2 0  9991,2 53971  53.2145 234.0089 0001852  49.7158 273.2337 15.08812533  1300,6917.964,95.439,541.111,538.548,0.0
53971.0,STARLINK-4639,PAYLOAD,2022-11-20 20:00:01,15.08834681,0.0001861,53.2147,232.8871,51.2085,190.413,-0.00028552,-4.829e-05,0.0,0 STARLINK-4639,1 53971U 22125H   22324.83334491 -.00004829  00000-0 -28552-3 0  9995,2 53971  53.2147 232.8871 0001861  51.2085 190.4130 15.08834681  7499,6917.897,95.438,541.049,538.474,0.0
53971.0,STARLINK-4639,PAYLOAD,2022-11-20 22:00:00,15.08840136,0.0001911,53.2146,232.5134,49.1759,285.3408,-0.0011829,-0.00019065,0.0,0 STARLINK-4639,1 53971U 22125H   22324.91667824 -.00019065  00000-0 -11829-2 0  9999,2 53971  53.2146 232.5134 0001911  49.1759 285.3408 15.08840136  1305,6917.88,95.438,541.067,538.423,0.0
53971.0,STARLINK-4639,PAYLOAD,2022-11-21 14:00:01,15.0881956,0.0001859,53.2142,229.5197,51.6574,306.0428,0.0034274,0.00054652,0.0,0 STARLINK-4639,1 53971U 22125H   22325.58334491  .00054652  00000-0  34274-2 0  9992,2 53971  53.2142 229.5197 0001859  51.6574 306.0428 15.08819560  1300,6917.943,95.439,541.094,538.5219999999998,0.0
53971.0,STARLINK-4639,PAYLOAD,2022-11-21 20:00:01,15.08873545,0.0001893,53.2143,228.3981,52.8124,223.573,-0.0020158,-0.00032256,0.0,0 STARLINK-4639,1 53971U 22125H   22325.83334491 -.00032256  00000-0 -20158-2 0  9994,2 53971  53.2143 228.3981 0001893  52.8124 223.5730 15.08873545  7646,6917.778,95.435,540.952,538.3330000000002,0.0
53971.0,STARLINK-4639,PAYLOAD,2022-11-21 22:00:00,15.08880776,0.0001944,53.2143,228.0245,49.8048,319.4845,-0.0038915,-0.00061761,0.0,0 STARLINK-4639,1 53971U 22125H   22325.91667824 -.00061761  00000-0 -38915-2 0  9995,2 53971  53.2143 228.0245 0001944  49.8048 319.4845 15.08880776  1307,6917.755999999999,95.435,540.966,538.276,0.0
53971.0,STARLINK-4639,PAYLOAD,2022-11-22 14:00:01,15.08827589,0.0001786999999999,53.2138,225.0304,49.5839,342.9885,0.00048758,7.478e-05,0.0,0 STARLINK-4639,1 53971U 22125H   22326.58335648  .00007478  00000-0  48758-3 0  9995,2 53971  53.2138 225.0304 0001787  49.5839 342.9885 15.08827589  1302,6917.918000000002,95.438,541.02,538.547,0.0
53971.0,STARLINK-4639,PAYLOAD,2022-11-22 20:00:01,15.08837681,0.0001844,53.2139,223.9089,49.8462,261.3495,-0.00083303,-0.00013521,0.0,0 STARLINK-4639,1 53971U 22125H   22326.83334491 -.00013521  00000-0 -83303-3 0  9991,2 53971  53.2139 223.9089 0001844  49.8462 261.3495 15.08837681  7805,6917.887,95.438,541.028,538.477,0.0
53971.0,STARLINK-4639,PAYLOAD,2022-11-22 22:00:00,15.08836159,0.0001911,53.2138,223.5353,47.3109,356.7788,-0.0013609,-0.0002188,0.0,0 STARLINK-4639,1 53971U 22125H   22326.91667824 -.00021880  00000-0 -13609-2 0  9997,2 53971  53.2138 223.5353 0001911  47.3109 356.7788 15.08836159  1302,6917.892,95.438,541.0790000000002,538.435,0.0
53971.0,STARLINK-4639,PAYLOAD,2022-11-23 14:00:01,15.08793231,0.000177,53.2136,220.5413,47.3487,19.9173,0.0026898,0.00042725,0.0,0 STARLINK-4639,1 53971U 22125H   22327.58334491  .00042725  00000-0  26898-2 0  9995,2 53971  53.2136 220.5413 0001770  47.3487  19.9173 15.08793231  1305,6918.023,95.441,541.113,538.664,0.0
53971.0,STARLINK-4639,PAYLOAD,2022-11-23 22:00:00,15.08830318,0.0001953,53.2136,219.0463,46.0104,32.8102,-0.0013491,-0.0002169,0.0,0 STARLINK-4639,1 53971U 22125H   22327.91667824 -.00021690  00000-0 -13491-2 0  9996,2 53971  53.2136 219.0463 0001953  46.0104  32.8102 15.08830318  1302,6917.91,95.438,541.126,538.424,0.0
53971.0,STARLINK-4639,PAYLOAD,2022-11-24 04:00:00,15.08803413,0.0002034,53.2136,217.9247,42.8086,314.6977,0.0030521,0.00048573,0.0,0 STARLINK-4639,1 53971U 22125H   22328.16667824  .00048573  00000-0  30521-2 0  9994,2 53971  53.2136 217.9247 0002034  42.8086 314.6977 15.08803413  8004,6917.9919999999975,95.44,541.264,538.45,0.0
53971.0,STARLINK-4639,PAYLOAD,2022-11-24 14:00:01,15.08810799,0.0001889,53.2136,216.0521,48.6087,53.3742,0.0030355,0.00048315,0.0,0 STARLINK-4639,1 53971U 22125H   22328.58334491  .00048315  00000-0  30355-2 0  9990,2 53971  53.2136 216.0521 0001889  48.6087  53.3742 15.08810799  1309,6917.97,95.439,541.141,538.528,0.0
53971.0,STARLINK-4639,PAYLOAD,2022-11-24 20:00:01,15.08854979,0.0002007,53.2137,214.9308,48.6222,332.0387,-0.0014700999999999,-0.00023619,0.0,0 STARLINK-4639,1 53971U 22125H   22328.83334491 -.00023619  00000-0 -14701-2 0  9997,2 53971  53.2137 214.9308 0002007  48.6222 332.0387 15.08854979  8109,6917.835,95.437,541.0880000000002,538.311,0.0
53971.0,STARLINK-4639,PAYLOAD,2022-11-24 22:00:00,15.08849892,0.0002072,53.2135,214.5572,47.195,66.3687,-0.0012255,-0.00019745,0.0,0 STARLINK-4639,1 53971U 22125H   22328.91667824 -.00019745  00000-0 -12255-2 0  9992,2 53971  53.2135 214.5572 0002072  47.1950  66.3687 15.08849892  1303,6917.85,95.437,541.149,538.2819999999998,0.0
53971.0,STARLINK-4639,PAYLOAD,2022-11-25 12:00:00,15.08842145,0.0001942,53.2137,211.9372,48.7585,355.1155,0.00074914,0.00011655,0.0,0 STARLINK-4639,1 53971U 22125H   22329.50001157  .00011655  00000-0  74914-3 0  9990,2 53971  53.2137 211.9372 0001942  48.7585 355.1155 15.08842145  8209,6917.874,95.437,541.082,538.395,0.0
53971.0,STARLINK-4639,PAYLOAD,2022-11-25 14:00:01,15.0884657,0.0001942,53.2135,211.5628,49.7959,86.9791,0.00018574,2.67e-05,0.0,0 STARLINK-4639,1 53971U 22125H   22329.58334491  .00002670  00000-0  18574-3 0  9995,2 53971  53.2135 211.5628 0001942  49.7959  86.9791 15.08846570  1308,6917.86,95.437,541.069,538.382,0.0
53971.0,STARLINK-4639,PAYLOAD,2022-11-25 22:00:00,15.08846796,0.0002065,53.2135,210.0678,46.3977,101.9887,-0.00068535,-0.00011181,0.0,0 STARLINK-4639,1 53971U 22125H   22329.91667824 -.00011181  00000-0 -68535-3 0  9992,2 53971  53.2135 210.0678 0002065  46.3977 101.9887 15.08846796  1301,6917.86,95.437,541.153,538.2959999999998,0.0
53971.0,STARLINK-4639,PAYLOAD,2022-11-26 12:00:00,15.08835373,0.0001905,53.2135,207.4477,48.8377,29.8623,0.0027017,0.00042967,0.0,0 STARLINK-4639,1 53971U 22125H   22330.50001157  .00042967  00000-0  27017-2 0  9993,2 53971  53.2135 207.4477 0001905  48.8377  29.8623 15.08835373  8358,6917.895,95.438,541.077,538.442,0.0
53971.0,STARLINK-4639,PAYLOAD,2022-11-26 14:00:01,15.08845354,0.0001919,53.2134,207.0733,50.1461,121.4515,0.0016261,0.0002569,0.0,0 STARLINK-4639,1 53971U 22125H   22330.58334491  .00025690  00000-0  16261-2 0  9994,2 53971  53.2134 207.0733 0001919  50.1461 121.4515 15.08845354  1300,6917.864000000001,95.437,541.057,538.401,0.0
53971.0,STARLINK-4639,PAYLOAD,2022-11-26 22:00:00,15.08856743,0.0002013,53.2133,205.5784,45.5633,137.6511,-0.0028013,-0.00044617,0.0,0 STARLINK-4639,1 53971U 22125H   22330.91667824 -.00044617  00000-0 -28013-2 0  9990,2 53971  53.2133 205.5784 0002013  45.5633 137.6511 15.08856743  8411,6917.829000000002,95.436,541.087,538.302,0.0
53971.0,STARLINK-4639,PAYLOAD,2022-11-27 12:00:00,15.0879787,0.0001759,53.2132,202.9581,46.2154,67.2896,0.0029322,0.00046633,0.0,0 STARLINK-4639,1 53971U 22125H   22331.50001157  .00046633  00000-0  29322-2 0  9999,2 53971  53.2132 202.9581 0001759  46.2154  67.2896 15.08797870  8507,6918.009,95.44,541.091,538.6569999999998,0.0
